NORAD_CAT_ID,OBJECT_NAME,OBJECT_TYPE,EPOCH,MEAN_MOTION,ECCENTRICITY,INCLINATION,RA_OF_ASC_NODE,ARG_OF_PERICENTER,MEAN_ANOMALY,BSTAR,MEAN_MOTION_DOT,MEAN_MOTION_DDOT,TLE_LINE0,TLE_LINE1,TLE_LINE2,SEMIMAJOR_AXIS,PERIOD,APOGEE,PERIGEE,DECAYED
53415.0,STARLINK-4479,PAYLOAD,2022-10-08 06:00:00,15.31851985,0.0001495,53.2172,319.3978,54.6859,167.6176,-0.0376079999999999,-0.01074957,0.0,0 STARLINK-4479,1 53415U 22097AD  22281.25001157 -.01074957  00000-0 -37608-1 0  9994,2 53415  53.2172 319.3978 0001495  54.6859 167.6176 15.31851985  9678,6848.424,94.004,471.31300000000016,469.265,0.0
53415.0,STARLINK-4479,PAYLOAD,2022-10-08 14:00:01,15.31061186,0.0001389,53.2171,317.8496,62.985,198.1065,-0.036764,-0.0102895,0.0,0 STARLINK-4479,1 53415U 22097AD  22281.58334491 -.01028950  00000-0 -36764-1 0  9994,2 53415  53.2171 317.8496 0001389  62.9850 198.1065 15.31061186  1304,6850.781999999997,94.052,473.599,471.695,0.0
53415.0,STARLINK-4479,PAYLOAD,2022-10-08 22:00:00,15.30325043,0.0001354,53.2175,316.2993,55.3432,243.6021,-0.038984,-0.01063234,0.0,0 STARLINK-4479,1 53415U 22097AD  22281.91667824 -.01063234  00000-0 -38984-1 0  9990,2 53415  53.2175 316.2993 0001354  55.3432 243.6021 15.30325043  1309,6852.979,94.098,475.772,473.916,0.0
53415.0,STARLINK-4479,PAYLOAD,2022-10-09 06:00:00,15.29583069,0.0001248,53.2171,314.7546,60.9744,274.9117,-0.040915,-0.0108815,0.0,0 STARLINK-4479,1 53415U 22097AD  22282.25001157 -.01088150  00000-0 -40915-1 0  9990,2 53415  53.2171 314.7546 0001248  60.9744 274.9117 15.29583069  9822,6855.195,94.143,477.915,476.204,0.0
53415.0,STARLINK-4479,PAYLOAD,2022-10-09 14:00:01,15.28814794,0.0001255,53.2169,313.2118,60.4239,311.5026,-0.041356,-0.01075183,0.0,0 STARLINK-4479,1 53415U 22097AD  22282.58334491 -.01075183  00000-0 -41356-1 0  9998,2 53415  53.2169 313.2118 0001255  60.4239 311.5026 15.28814794  1303,6857.491,94.191,480.217,478.496,0.0
53415.0,STARLINK-4479,PAYLOAD,2022-10-09 22:00:00,15.2804622,0.0001197,53.2174,311.6666,65.6885,341.3683,-0.0418199999999999,-0.01062874,0.0,0 STARLINK-4479,1 53415U 22097AD  22282.91667824 -.01062874  00000-0 -41820-1 0  9993,2 53415  53.2174 311.6666 0001197  65.6885 341.3683 15.28046220  1309,6859.79,94.238,482.477,480.834,0.0
53415.0,STARLINK-4479,PAYLOAD,2022-10-10 08:00:01,15.27097598,0.0001476,53.2173,309.7427,66.9285,112.7491,-0.043101,-0.01063992,0.0,0 STARLINK-4479,1 53415U 22097AD  22283.33334491 -.01063992  00000-0 -43101-1 0  9997,2 53415  53.2173 309.7427 0001476  66.9285 112.7491 15.27097598  9992,6862.630999999999,94.297,485.509,483.483,0.0
53415.0,STARLINK-4479,PAYLOAD,2022-10-10 14:00:01,15.2652806,0.000146,53.2172,308.589,54.9124,59.6535,-0.043818,-0.01063127,0.0,0 STARLINK-4479,1 53415U 22097AD  22283.58334491 -.01063127  00000-0 -43818-1 0  9999,2 53415  53.2172 308.5890 0001460  54.9124  59.6535 15.26528060  1301,6864.3380000000025,94.332,487.205,485.201,0.0
53415.0,STARLINK-4479,PAYLOAD,2022-10-10 22:00:01,15.25768397,0.0001426,53.2173,307.0502,61.5201,85.4971,-0.044869,-0.01063718,0.0,0 STARLINK-4479,1 53415U 22097AD  22283.91668981 -.01063718  00000-0 -44869-1 0  9993,2 53415  53.2173 307.0502 0001426  61.5201  85.4971 15.25768397  1307,6866.616,94.379,489.46,487.502,0.0
53415.0,STARLINK-4479,PAYLOAD,2022-10-11 06:00:00,15.25008331,0.0001573,53.2175,305.5161,57.6148,120.8121,-0.045855,-0.01062517,0.0,0 STARLINK-4479,1 53415U 22097AD  22284.25001157 -.01062517  00000-0 -45855-1 0  9999,2 53415  53.2175 305.5161 0001573  57.6148 120.8121 15.25008331 10139,6868.897,94.426,491.843,489.682,0.0
53415.0,STARLINK-4479,PAYLOAD,2022-10-11 14:00:01,15.242503400000002,0.0001539,53.2171,303.9833,56.8061,152.1808,-0.047008,-0.01064465,0.0,0 STARLINK-4479,1 53415U 22097AD  22284.58334491 -.01064465  00000-0 -47008-1 0  9991,2 53415  53.2171 303.9833 0001539  56.8061 152.1808 15.24250340  1307,6871.174,94.473,494.097,491.982,0.0
53415.0,STARLINK-4479,PAYLOAD,2022-10-11 22:00:00,15.23489202,0.0001389,53.2172,302.4502,60.7221,177.9148,-0.047988,-0.010623,0.0,0 STARLINK-4479,1 53415U 22097AD  22284.91667824 -.01062300  00000-0 -47988-1 0  9990,2 53415  53.2172 302.4502 0001389  60.7221 177.9148 15.23489202  1302,6873.4630000000025,94.52,496.283,494.37300000000016,0.0
53415.0,STARLINK-4479,PAYLOAD,2022-10-12 06:00:00,15.22729441,0.0001458,53.2174,300.9212,60.7922,206.5797,-0.0490339999999999,-0.01061226,0.0,0 STARLINK-4479,1 53415U 22097AD  22285.25001157 -.01061226  00000-0 -49034-1 0  9999,2 53415  53.2174 300.9212 0001458  60.7922 206.5797 15.22729441 10287,6875.749,94.567,498.616,496.611,0.0
53415.0,STARLINK-4479,PAYLOAD,2022-10-12 14:00:01,15.21973169,0.0001394,53.2171,299.3934,56.9273,238.2662,-0.050416,-0.01066405,0.0,0 STARLINK-4479,1 53415U 22097AD  22285.58334491 -.01066405  00000-0 -50416-1 0  9995,2 53415  53.2171 299.3934 0001394  56.9273 238.2662 15.21973169  1304,6878.026,94.614,500.85,498.9330000000001,0.0
53415.0,STARLINK-4479,PAYLOAD,2022-10-12 22:00:00,15.21209364,0.0001306,53.2173,297.8654,60.4968,261.6099,-0.051224,-0.01059856,0.0,0 STARLINK-4479,1 53415U 22097AD  22285.91667824 -.01059856  00000-0 -51224-1 0  9991,2 53415  53.2173 297.8654 0001306  60.4968 261.6099 15.21209364  1305,6880.329000000002,94.662,503.092,501.295,0.0
53415.0,STARLINK-4479,PAYLOAD,2022-10-13 06:00:00,15.20451904,0.0001214,53.2174,296.3422,76.4949,271.6078,-0.052521,-0.0106246,0.0,0 STARLINK-4479,1 53415U 22097AD  22286.25001157 -.01062460  00000-0 -52521-1 0  9996,2 53415  53.2174 296.3422 0001214  76.4949 271.6078 15.20451904 10448,6882.614000000001,94.709,505.314,503.643,0.0
53415.0,STARLINK-4479,PAYLOAD,2022-10-13 14:00:01,15.19693966,0.0001192,53.2171,294.8196,71.3058,301.8813,-0.053838,-0.01064932,0.0,0 STARLINK-4479,1 53415U 22097AD  22286.58334491 -.01064932  00000-0 -53838-1 0  9990,2 53415  53.2171 294.8196 0001192  71.3058 301.8813 15.19693966  1308,6884.901999999999,94.756,507.587,505.946,0.0
53415.0,STARLINK-4479,PAYLOAD,2022-10-13 22:00:00,15.18930738,0.0001186,53.2172,293.2969,76.0102,321.3520000000001,-0.0547559999999999,-0.01059692,0.0,0 STARLINK-4479,1 53415U 22097AD  22286.91667824 -.01059692  00000-0 -54756-1 0  9993,2 53415  53.2172 293.2969 0001186  76.0102 321.3520 15.18930738  1307,6887.208000000001,94.804,509.89,508.256,0.0
53415.0,STARLINK-4479,PAYLOAD,2022-10-14 08:00:01,15.17984142,0.0001503,53.2174,291.4001,67.1488,89.2064,-0.05652,-0.01077343,0.0,0 STARLINK-4479,1 53415U 22097AD  22287.33335648 -.01077343  00000-0 -56520-1 0  9990,2 53415  53.2174 291.4001 0001503  67.1488  89.2064 15.17984142 10600,6890.071,94.863,512.971,510.9,0.0
53415.0,STARLINK-4479,PAYLOAD,2022-10-14 14:00:01,15.17413902,0.0001351999999999,53.2171,290.2618,62.7396,20.2275,-0.057364,-0.01075659,0.0,0 STARLINK-4479,1 53415U 22097AD  22287.58334491 -.01075659  00000-0 -57364-1 0  9997,2 53415  53.2171 290.2618 0001352  62.7396  20.2275 15.17413902  1306,6891.797,94.898,514.594,512.73,0.0
53415.0,STARLINK-4479,PAYLOAD,2022-10-14 22:00:00,15.166536,0.0001351999999999,53.2174,288.7445,68.5811,35.8219,-0.0586159999999999,-0.01075356,0.0,0 STARLINK-4479,1 53415U 22097AD  22287.91667824 -.01075356  00000-0 -58616-1 0  9998,2 53415  53.2174 288.7445 0001352  68.5811  35.8219 15.16653600  1305,6894.1,94.946,516.8969999999998,515.033,0.0
53415.0,STARLINK-4479,PAYLOAD,2022-10-15 06:00:00,15.15894524,0.0001606,53.2174,287.2322,54.13800000000001,70.7855,-0.05992,-0.01075635,0.0,0 STARLINK-4479,1 53415U 22097AD  22288.25001157 -.01075635  00000-0 -59920-1 0  9996,2 53415  53.2174 287.2322 0001606  54.1380  70.7855 15.15894524 10740,6896.401,94.993,519.374,517.159,0.0
53415.0,STARLINK-4479,PAYLOAD,2022-10-15 14:00:01,15.15134667,0.0001449,53.2172,285.7198,66.4847,78.0481,-0.061163,-0.01074447,0.0,0 STARLINK-4479,1 53415U 22097AD  22288.58334491 -.01074447  00000-0 -61163-1 0  9994,2 53415  53.2172 285.7198 0001449  66.4847  78.0481 15.15134667  1304,6898.706999999999,95.041,521.571,519.572,0.0
53415.0,STARLINK-4479,PAYLOAD,2022-10-15 22:00:01,15.14375964,0.0001551999999999,53.2174,284.208,59.1835,104.1094,-0.0626419999999999,-0.0107678,0.0,0 STARLINK-4479,1 53415U 22097AD  22288.91668981 -.01076780  00000-0 -62642-1 0  9990,2 53415  53.2174 284.2080 0001552  59.1835 104.1094 15.14375964  1308,6901.011,95.089,523.947,521.805,0.0
53415.0,STARLINK-4479,PAYLOAD,2022-10-16 06:00:00,15.13614897,0.0001696999999999,53.2174,282.7011,53.9376,127.0755,-0.06381,-0.01073737,0.0,0 STARLINK-4479,1 53415U 22097AD  22289.25001157 -.01073737  00000-0 -63810-1 0  9991,2 53415  53.2174 282.7011 0001697  53.9376 127.0755 15.13614897 10899,6903.324000000001,95.136,526.36,524.0169999999998,0.0
53415.0,STARLINK-4479,PAYLOAD,2022-10-16 14:00:01,15.12856344,0.0001434,53.2173,281.1938,77.0386,120.8455,-0.0652659999999999,-0.01074862,0.0,0 STARLINK-4479,1 53415U 22097AD  22289.58334491 -.01074862  00000-0 -65266-1 0  9994,2 53415  53.2173 281.1938 0001434  77.0386 120.8455 15.12856344  1304,6905.630999999999,95.184,528.486,526.506,0.0
53415.0,STARLINK-4479,PAYLOAD,2022-10-16 22:00:00,15.12097155,0.0001419,53.2174,279.6874,83.1836,130.6596,-0.066747,-0.01075976,0.0,0 STARLINK-4479,1 53415U 22097AD  22289.91667824 -.01075976  00000-0 -66747-1 0  9992,2 53415  53.2174 279.6874 0001419  83.1836 130.6596 15.12097155  1309,6907.941999999999,95.232,530.788,528.827,0.0
53415.0,STARLINK-4479,PAYLOAD,2022-10-17 06:00:00,15.11335865,0.0001551999999999,53.2175,278.1859,64.4712,164.4174,-0.067953,-0.01072629,0.0,0 STARLINK-4479,1 53415U 22097AD  22290.25001157 -.01072629  00000-0 -67953-1 0  9994,2 53415  53.2175 278.1859 0001552  64.4712 164.4174 15.11335865 11041,6910.262,95.28,533.2,531.055,0.0
53415.0,STARLINK-4479,PAYLOAD,2022-10-17 14:00:01,15.10578144,0.0001621,53.2173,276.6837,55.452,187.5695,-0.069607,-0.01075574,0.0,0 STARLINK-4479,1 53415U 22097AD  22290.58334491 -.01075574  00000-0 -69607-1 0  9990,2 53415  53.2173 276.6837 0001621  55.4520 187.5695 15.10578144  1302,6912.573,95.328,535.558,533.317,0.0
